[{"OBJECT_NAME":"USA 176 (DSP 22)","OBJECT_ID":"2004-004A","EPOCH":"2026-03-03T09:56:38.689152","MEAN_MOTION":1.00272643,"ECCENTRICITY":0.00026751,"INCLINATION":11.9192,"RA_OF_ASC_NODE":26.8414,"ARG_OF_PERICENTER":274.6937,"MEAN_ANOMALY":272.3744,"EPHEMERIS_TYPE":0,"CLASSIFICATION_TYPE":"U","NORAD_CAT_ID":28158,"ELEMENT_SET_NO":999,"REV_AT_EPOCH":3187,"BSTAR":0,"MEAN_MOTION_DOT":-1.69e-6,"MEAN_MOTION_DDOT":0},{"OBJECT_NAME":"IUS R/B(2)","OBJECT_ID":"2004-004D","EPOCH":"2026-03-03T03:41:41.133984","MEAN_MOTION":0.99830009,"ECCENTRICITY":0.0004266,"INCLINATION":12.0308,"RA_OF_ASC_NODE":27.0437,"ARG_OF_PERICENTER":11.6238,"MEAN_ANOMALY":348.4231,"EPHEMERIS_TYPE":0,"CLASSIFICATION_TYPE":"U","NORAD_CAT_ID":28161,"ELEMENT_SET_NO":999,"REV_AT_EPOCH":2433,"BSTAR":0,"MEAN_MOTION_DOT":-1.34e-6,"MEAN_MOTION_DDOT":0},{"OBJECT_NAME":"ABS-4 (MOBISAT-1)","OBJECT_ID":"2004-007A","EPOCH":"2026-03-03T17:18:04.044096","MEAN_MOTION":1.00271742,"ECCENTRICITY":0.0005364,"INCLINATION":5.7744,"RA_OF_ASC_NODE":73.291,"ARG_OF_PERICENTER":272.5165,"MEAN_ANOMALY":136.1521,"EPHEMERIS_TYPE":0,"CLASSIFICATION_TYPE":"U","NORAD_CAT_ID":28184,"ELEMENT_SET_NO":999,"REV_AT_EPOCH":5128,"BSTAR":0,"MEAN_MOTION_DOT":2.8e-7,"MEAN_MOTION_DDOT":0},{"OBJECT_NAME":"EUTELSAT 139 WEST A","OBJECT_ID":"2004-008A","EPOCH":"2026-03-03T19:01:39.806112","MEAN_MOTION":1.00833401,"ECCENTRICITY":0.0001093,"INCLINATION":5.5616,"RA_OF_ASC_NODE":73.273,"ARG_OF_PERICENTER":39.906,"MEAN_ANOMALY":295.1791,"EPHEMERIS_TYPE":0,"CLASSIFICATION_TYPE":"U","NORAD_CAT_ID":28187,"ELEMENT_SET_NO":999,"REV_AT_EPOCH":8029,"BSTAR":0,"MEAN_MOTION_DOT":-1.98e-6,"MEAN_MOTION_DDOT":0},{"OBJECT_NAME":"RADUGA-1 7","OBJECT_ID":"2004-010A","EPOCH":"2026-03-03T12:35:08.673216","MEAN_MOTION":1.00170933,"ECCENTRICITY":0.0005294,"INCLINATION":13.5549,"RA_OF_ASC_NODE":21.6006,"ARG_OF_PERICENTER":244.9126,"MEAN_ANOMALY":142.9355,"EPHEMERIS_TYPE":0,"CLASSIFICATION_TYPE":"U","NORAD_CAT_ID":28194,"ELEMENT_SET_NO":999,"REV_AT_EPOCH":8036,"BSTAR":0,"MEAN_MOTION_DOT":3.8e-7,"MEAN_MOTION_DDOT":0},{"OBJECT_NAME":"SUPERBIRD-A2","OBJECT_ID":"2004-011A","EPOCH":"2026-03-03T14:31:38.787456","MEAN_MOTION":0.99464014,"ECCENTRICITY":0.002771,"INCLINATION":13.3445,"RA_OF_ASC_NODE":18.3827,"ARG_OF_PERICENTER":34.6217,"MEAN_ANOMALY":159.5342,"EPHEMERIS_TYPE":0,"CLASSIFICATION_TYPE":"U","NORAD_CAT_ID":28218,"ELEMENT_SET_NO":999,"REV_AT_EPOCH":7939,"BSTAR":0,"MEAN_MOTION_DOT":-3.5e-7,"MEAN_MOTION_DDOT":0},{"OBJECT_NAME":"SL-12 R/B(2)","OBJECT_ID":"2004-015D","EPOCH":"2026-03-03T14:54:03.532608","MEAN_MOTION":1.00706767,"ECCENTRICITY":0.0017648,"INCLINATION":13.2297,"RA_OF_ASC_NODE":15.1555,"ARG_OF_PERICENTER":325.4258,"MEAN_ANOMALY":218.0968,"EPHEMERIS_TYPE":0,"CLASSIFICATION_TYPE":"U","NORAD_CAT_ID":28240,"ELEMENT_SET_NO":999,"REV_AT_EPOCH":8034,"BSTAR":0,"MEAN_MOTION_DOT":3.8e-7,"MEAN_MOTION_DDOT":0},{"OBJECT_NAME":"AMC-11","OBJECT_ID":"2004-017A","EPOCH":"2026-03-03T15:15:31.476672","MEAN_MOTION":1.00271978,"ECCENTRICITY":0.0003207,"INCLINATION":0.0394,"RA_OF_ASC_NODE":79.1201,"ARG_OF_PERICENTER":268.3588,"MEAN_ANOMALY":291.6831,"EPHEMERIS_TYPE":0,"CLASSIFICATION_TYPE":"U","NORAD_CAT_ID":28252,"ELEMENT_SET_NO":999,"REV_AT_EPOCH":7980,"BSTAR":0,"MEAN_MOTION_DOT":-6.4e-7,"MEAN_MOTION_DDOT":0},{"OBJECT_NAME":"SL-12 R/B(2)","OBJECT_ID":"2004-010F","EPOCH":"2026-03-03T18:54:03.036096","MEAN_MOTION":1.00108481,"ECCENTRICITY":0.0026695,"INCLINATION":13.598,"RA_OF_ASC_NODE":21.8052,"ARG_OF_PERICENTER":6.6021,"MEAN_ANOMALY":351.7821,"EPHEMERIS_TYPE":0,"CLASSIFICATION_TYPE":"U","NORAD_CAT_ID":28256,"ELEMENT_SET_NO":999,"REV_AT_EPOCH":7960,"BSTAR":0,"MEAN_MOTION_DOT":-2.92e-6,"MEAN_MOTION_DDOT":0},{"OBJECT_NAME":"COSMOS 1247 DEB","OBJECT_ID":"1981-016L","EPOCH":"2026-02-26T08:07:28.591104","MEAN_MOTION":2.02481024,"ECCENTRICITY":0.6263199,"INCLINATION":68.9711,"RA_OF_ASC_NODE":6.5795,"ARG_OF_PERICENTER":344.2585,"MEAN_ANOMALY":2.7037,"EPHEMERIS_TYPE":0,"CLASSIFICATION_TYPE":"U","NORAD_CAT_ID":28270,"ELEMENT_SET_NO":999,"REV_AT_EPOCH":18386,"BSTAR":0,"MEAN_MOTION_DOT":-9.63e-6,"MEAN_MOTION_DDOT":0},{"OBJECT_NAME":"INTELSAT 10-02","OBJECT_ID":"2004-022A","EPOCH":"2026-03-03T15:46:58.463904","MEAN_MOTION":1.00272396,"ECCENTRICITY":0.0001059,"INCLINATION":0.0151,"RA_OF_ASC_NODE":123.2246,"ARG_OF_PERICENTER":255.4458,"MEAN_ANOMALY":18.4711,"EPHEMERIS_TYPE":0,"CLASSIFICATION_TYPE":"U","NORAD_CAT_ID":28358,"ELEMENT_SET_NO":999,"REV_AT_EPOCH":7949,"BSTAR":0,"MEAN_MOTION_DOT":-2.5e-7,"MEAN_MOTION_DDOT":0},{"OBJECT_NAME":"BREEZE-M R/B","OBJECT_ID":"2004-022C","EPOCH":"2026-03-03T09:04:24.392640","MEAN_MOTION":2.01476101,"ECCENTRICITY":0.5996493,"INCLINATION":23.5638,"RA_OF_ASC_NODE":106.6274,"ARG_OF_PERICENTER":306.005,"MEAN_ANOMALY":12.1169,"EPHEMERIS_TYPE":0,"CLASSIFICATION_TYPE":"U","NORAD_CAT_ID":28360,"ELEMENT_SET_NO":999,"REV_AT_EPOCH":15922,"BSTAR":0,"MEAN_MOTION_DOT":4.32e-6,"MEAN_MOTION_DDOT":0},{"OBJECT_NAME":"ANIK F2","OBJECT_ID":"2004-027A","EPOCH":"2026-03-03T15:15:31.476672","MEAN_MOTION":1.00272256,"ECCENTRICITY":0.0002982,"INCLINATION":3.0121,"RA_OF_ASC_NODE":80.8648,"ARG_OF_PERICENTER":295.5755,"MEAN_ANOMALY":262.7153,"EPHEMERIS_TYPE":0,"CLASSIFICATION_TYPE":"U","NORAD_CAT_ID":28378,"ELEMENT_SET_NO":999,"REV_AT_EPOCH":4020,"BSTAR":0,"MEAN_MOTION_DOT":-6.3e-7,"MEAN_MOTION_DDOT":0},{"OBJECT_NAME":"ARIANE 5 R/B","OBJECT_ID":"2004-027B","EPOCH":"2026-03-03T13:12:27.674784","MEAN_MOTION":2.07974824,"ECCENTRICITY":0.7286679,"INCLINATION":7.2795,"RA_OF_ASC_NODE":330.3954,"ARG_OF_PERICENTER":31.6626,"MEAN_ANOMALY":159.1807,"EPHEMERIS_TYPE":0,"CLASSIFICATION_TYPE":"U","NORAD_CAT_ID":28379,"ELEMENT_SET_NO":999,"REV_AT_EPOCH":16433,"BSTAR":-0.00038641,"MEAN_MOTION_DOT":-1.04e-6,"MEAN_MOTION_DDOT":0},{"OBJECT_NAME":"AMC-15","OBJECT_ID":"2004-041A","EPOCH":"2026-03-03T15:17:16.310112","MEAN_MOTION":1.00272742,"ECCENTRICITY":0.0002426,"INCLINATION":0.0565,"RA_OF_ASC_NODE":294.9239,"ARG_OF_PERICENTER":55.6647,"MEAN_ANOMALY":295.0748,"EPHEMERIS_TYPE":0,"CLASSIFICATION_TYPE":"U","NORAD_CAT_ID":28446,"ELEMENT_SET_NO":999,"REV_AT_EPOCH":7824,"BSTAR":0,"MEAN_MOTION_DOT":-1.03e-6,"MEAN_MOTION_DDOT":0},{"OBJECT_NAME":"BREEZE-M R/B","OBJECT_ID":"2004-041B","EPOCH":"2026-03-03T14:19:29.347680","MEAN_MOTION":1.8697688,"ECCENTRICITY":0.5168918,"INCLINATION":16.6282,"RA_OF_ASC_NODE":243.7604,"ARG_OF_PERICENTER":92.7739,"MEAN_ANOMALY":27.7142,"EPHEMERIS_TYPE":0,"CLASSIFICATION_TYPE":"U","NORAD_CAT_ID":28447,"ELEMENT_SET_NO":999,"REV_AT_EPOCH":14604,"BSTAR":0,"MEAN_MOTION_DOT":-1.5e-6,"MEAN_MOTION_DDOT":0},{"OBJECT_NAME":"SL-12 R/B(2)","OBJECT_ID":"2004-043D","EPOCH":"2026-03-03T02:52:24.392064","MEAN_MOTION":1.00162922,"ECCENTRICITY":0.00070207,"INCLINATION":13.1139,"RA_OF_ASC_NODE":17.2402,"ARG_OF_PERICENTER":167.6668,"MEAN_ANOMALY":182.9735,"EPHEMERIS_TYPE":0,"CLASSIFICATION_TYPE":"U","NORAD_CAT_ID":28466,"ELEMENT_SET_NO":999,"REV_AT_EPOCH":7804,"BSTAR":0,"MEAN_MOTION_DOT":-1.28e-6,"MEAN_MOTION_DDOT":0}]
