USA 176 (DSP 22)        
1 28158U 04004A   26062.41433668 -.00000169  00000+0  00000+0 0  9998
2 28158  11.9192  26.8414 0002675 274.6937 272.3744  1.00272643 31875
IUS R/B(2)              
1 28161U 04004D   26062.15394831 -.00000134  00000+0  00000+0 0  9993
2 28161  12.0308  27.0437 0004266  11.6238 348.4231  0.99830009 24331
ABS-4 (MOBISAT-1)       
1 28184U 04007A   26062.72088014  .00000028  00000+0  00000+0 0  9998
2 28184   5.7744  73.2910 0005364 272.5165 136.1521  1.00271742 51289
EUTELSAT 139 WEST A     
1 28187U 04008A   26062.79282183 -.00000198  00000+0  00000+0 0  9991
2 28187   5.5616  73.2730 0001093  39.9060 295.1791  1.00833401 80296
RADUGA-1 7              
1 28194U 04010A   26062.52440594  .00000038  00000+0  00000+0 0  9997
2 28194  13.5549  21.6006 0005294 244.9126 142.9355  1.00170933 80366
SUPERBIRD-A2            
1 28218U 04011A   26062.60531004 -.00000035  00000+0  00000+0 0  9999
2 28218  13.3445  18.3827 0027710  34.6217 159.5342  0.99464014 79396
SL-12 R/B(2)            
1 28240U 04015D   26062.62087422  .00000038  00000+0  00000+0 0  9992
2 28240  13.2297  15.1555 0017648 325.4258 218.0968  1.00706767 80342
AMC-11                  
1 28252U 04017A   26062.63578098 -.00000064  00000+0  00000+0 0  9992
2 28252   0.0394  79.1201 0003207 268.3588 291.6831  1.00271978 79808
SL-12 R/B(2)            
1 28256U 04010F   26062.78753514 -.00000292  00000+0  00000+0 0  9996
2 28256  13.5980  21.8052 0026695   6.6021 351.7821  1.00108481 79604
COSMOS 1247 DEB         
1 28270U 81016L   26057.33852536 -.00000963  00000+0  00000+0 0  9997
2 28270  68.9711   6.5795 6263199 344.2585   2.7037  2.02481024183860
INTELSAT 10-02          
1 28358U 04022A   26062.65762111 -.00000025  00000+0  00000+0 0  9995
2 28358   0.0151 123.2246 0001059 255.4458  18.4711  1.00272396 79494
BREEZE-M R/B            
1 28360U 04022C   26062.37806010  .00000432  00000+0  00000+0 0  9995
2 28360  23.5638 106.6274 5996493 306.0050  12.1169  2.01476101159224
ANIK F2                 
1 28378U 04027A   26062.63578098 -.00000063  00000+0  00000+0 0  9991
2 28378   3.0121  80.8648 0002982 295.5755 262.7153  1.00272256 40207
ARIANE 5 R/B            
1 28379U 04027B   26062.55032031 -.00000104  00000+0 -38641-3 0  9998
2 28379   7.2795 330.3954 7286679  31.6626 159.1807  2.07974824164338
AMC-15                  
1 28446U 04041A   26062.63699433 -.00000103  00000+0  00000+0 0  9995
2 28446   0.0565 294.9239 0002426  55.6647 295.0748  1.00272742 78248
BREEZE-M R/B            
1 28447U 04041B   26062.59686745 -.00000150  00000+0  00000+0 0  9995
2 28447  16.6282 243.7604 5168918  92.7739  27.7142  1.86976880146044
SL-12 R/B(2)            
1 28466U 04043D   26062.11972676 -.00000128  00000+0  00000+0 0  9992
2 28466  13.1139  17.2402 0007020 167.6668 182.9735  1.00162922 78048
